0 COSMOS 2251 DEB
1 37290U 93036BJE 13282.02906681  .00132245  00000-0  34684-2 0  1794
2 37290 073.9841 044.1907 0134303 331.0430 030.0093 15.29395559209243
0 COSMOS 2251 DEB
1 37290U 93036BJE 13292.93565219  .00198441  00000-0  45813-2 0  1812
2 37290 073.9815 020.8384 0128137 304.7453 044.6662 15.33595996210915
0 COSMOS 2251 DEB
1 37290U 93036BJE 13294.91601970  .00256866  00000-0  58078-2 0  1821
2 37290 073.9853 016.5827 0125293 301.6186 179.3992 15.34351560211214
0 COSMOS 2251 DEB
1 37290U 93036BJE 13295.55676045  .00267226  00000-0  59899-2 0  1832
2 37290 073.9852 015.2055 0124832 299.7773 119.3077 15.34621013211311
